start=new Date('2022-05-03T00:00:00.000Z').valueOf();
sats=[{"SITE":"AFETR","MEAN_MOTION_DOT":"0.00002010","DECAY_DATE":null,"ELEMENT_SET_NO":"999","REV_AT_EPOCH":"5597","MEAN_MOTION":"15.06395225","INCLINATION":"53.0563","RCS_SIZE":"LARGE","NORAD_CAT_ID":"48326","OBJECT_TYPE":"PAYLOAD","RA_OF_ASC_NODE":"297.6440","MEAN_ELEMENT_THEORY":"SGP4","EPHEMERIS_TYPE":"0","EPOCH":"2022-05-02T17:50:53.557152","MEAN_ANOMALY":"275.7150","LAUNCH_DATE":"2021-04-29","APOAPSIS":"548.239","PERIOD":"95.592","TLE_LINE2":"2 48326  53.0563 297.6440 0001460  84.4005 275.7150 15.06395225 55972","GP_ID":"202556376","SEMIMAJOR_AXIS":"6925.363","PERIAPSIS":"546.217","COUNTRY_CODE":"US","CENTER_NAME":"EARTH","REF_FRAME":"TEME","TIME_SYSTEM":"UTC","TLE_LINE1":"1 48326U 21036BC  22122.74367543  .00002010  00000-0  15383-3 0  9999","OBJECT_NAME":"STARLINK-2498","MEAN_MOTION_DDOT":"0.0000000000000","ECCENTRICITY":"0.00014600","OBJECT_ID":"2021-036BC","CLASSIFICATION_TYPE":"U","BSTAR":"0.00015383000000","FILE":"3426306","ARG_OF_PERICENTER":"84.4005"},{"RA_OF_ASC_NODE":"297.3579","OBJECT_TYPE":"PAYLOAD","NORAD_CAT_ID":"48327","RCS_SIZE":"LARGE","DECAY_DATE":null,"INCLINATION":"53.0562","REV_AT_EPOCH":"5598","ELEMENT_SET_NO":"999","MEAN_MOTION":"15.06395957","SITE":"AFETR","MEAN_MOTION_DOT":"0.00001543","TLE_LINE2":"2 48327  53.0562 297.3579 0001490  68.0639 292.0509 15.06395957 55989","GP_ID":"202555130","SEMIMAJOR_AXIS":"6925.361","PERIOD":"95.592","APOAPSIS":"548.258","LAUNCH_DATE":"2021-04-29","MEAN_ANOMALY":"292.0509","EPHEMERIS_TYPE":"0","EPOCH":"2022-05-02T19:21:07.864128","MEAN_ELEMENT_THEORY":"SGP4","OBJECT_NAME":"STARLINK-2502","TLE_LINE1":"1 48327U 21036BD  22122.80634102  .00001543  00000-0  12246-3 0  9990","TIME_SYSTEM":"UTC","REF_FRAME":"TEME","COUNTRY_CODE":"US","CENTER_NAME":"EARTH","PERIAPSIS":"546.194","ARG_OF_PERICENTER":"68.0639","FILE":"3426306","BSTAR":"0.00012246000000","CLASSIFICATION_TYPE":"U","ECCENTRICITY":"0.00014900","OBJECT_ID":"2021-036BD","MEAN_MOTION_DDOT":"0.0000000000000"},{"MEAN_MOTION":"15.06394390","DECAY_DATE":null,"REV_AT_EPOCH":"5598","ELEMENT_SET_NO":"999","INCLINATION":"53.0563","MEAN_MOTION_DOT":"0.00001170","SITE":"AFETR","RA_OF_ASC_NODE":"297.3797","NORAD_CAT_ID":"48328","OBJECT_TYPE":"PAYLOAD","RCS_SIZE":"LARGE","LAUNCH_DATE":"2021-04-29","MEAN_ANOMALY":"281.2209","EPOCH":"2022-05-02T19:15:49.214016","EPHEMERIS_TYPE":"0","MEAN_ELEMENT_THEORY":"SGP4","GP_ID":"202555380","TLE_LINE2":"2 48328  53.0563 297.3797 0001478  78.8946 281.2209 15.06394390 55986","SEMIMAJOR_AXIS":"6925.366","PERIOD":"95.592","APOAPSIS":"548.254","COUNTRY_CODE":"US","CENTER_NAME":"EARTH","REF_FRAME":"TEME","PERIAPSIS":"546.207","OBJECT_NAME":"STARLINK-2504","TIME_SYSTEM":"UTC","TLE_LINE1":"1 48328U 21036BE  22122.80265294  .00001170  00000-0  97426-4 0  9993","BSTAR":"0.00009742600000","CLASSIFICATION_TYPE":"U","OBJECT_ID":"2021-036BE","ECCENTRICITY":"0.00014780","MEAN_MOTION_DDOT":"0.0000000000000","ARG_OF_PERICENTER":"78.8946","FILE":"3426306"},{"APOAPSIS":"548.343","PERIOD":"95.593","TLE_LINE2":"2 48329  53.0545 297.4047 0001546  65.8815 294.2336 15.06380818 55988","SEMIMAJOR_AXIS":"6925.407","GP_ID":"202556630","MEAN_ELEMENT_THEORY":"SGP4","EPHEMERIS_TYPE":"0","EPOCH":"2022-05-02T19:10:32.167488","MEAN_ANOMALY":"294.2336","LAUNCH_DATE":"2021-04-29","RCS_SIZE":"LARGE","NORAD_CAT_ID":"48329","OBJECT_TYPE":"PAYLOAD","RA_OF_ASC_NODE":"297.4047","SITE":"AFETR","MEAN_MOTION_DOT":"0.00001805","REV_AT_EPOCH":"5598","DECAY_DATE":null,"INCLINATION":"53.0545","ELEMENT_SET_NO":"999","MEAN_MOTION":"15.06380818","FILE":"3426306","ARG_OF_PERICENTER":"65.8815","MEAN_MOTION_DDOT":"0.0000000000000","ECCENTRICITY":"0.00015460","OBJECT_ID":"2021-036BF","CLASSIFICATION_TYPE":"U","BSTAR":"0.00014014000000","TIME_SYSTEM":"UTC","TLE_LINE1":"1 48329U 21036BF  22122.79898342  .00001805  00000-0  14014-3 0  9994","OBJECT_NAME":"STARLINK-2510","PERIAPSIS":"546.202","COUNTRY_CODE":"US","CENTER_NAME":"EARTH","REF_FRAME":"TEME"},{"ECCENTRICITY":"0.00015830","OBJECT_ID":"2021-036BG","MEAN_MOTION_DDOT":"0.0000000000000","BSTAR":"0.00051529000000","CLASSIFICATION_TYPE":"U","FILE":"3426306","ARG_OF_PERICENTER":"69.5621","PERIAPSIS":"546.096","CENTER_NAME":"EARTH","COUNTRY_CODE":"US","REF_FRAME":"TEME","OBJECT_NAME":"STARLINK-2501","TIME_SYSTEM":"UTC","TLE_LINE1":"1 48330U 21036BG  22122.79528417  .00007403  00000-0  51529-3 0  9991","EPHEMERIS_TYPE":"0","EPOCH":"2022-05-02T19:05:12.552288","MEAN_ELEMENT_THEORY":"SGP4","LAUNCH_DATE":"2021-04-29","MEAN_ANOMALY":"290.5538","APOAPSIS":"548.289","TLE_LINE2":"2 48330  53.0540 297.4174 0001583  69.5621 290.5538 15.06406802 55988","SEMIMAJOR_AXIS":"6925.328","GP_ID":"202556876","PERIOD":"95.592","REV_AT_EPOCH":"5598","DECAY_DATE":null,"INCLINATION":"53.0540","ELEMENT_SET_NO":"999","MEAN_MOTION":"15.06406802","MEAN_MOTION_DOT":"0.00007403","SITE":"AFETR","NORAD_CAT_ID":"48330","OBJECT_TYPE":"PAYLOAD","RCS_SIZE":"LARGE","RA_OF_ASC_NODE":"297.4174"},{"COUNTRY_CODE":"US","REF_FRAME":"TEME","CENTER_NAME":"EARTH","PERIAPSIS":"546.281","TIME_SYSTEM":"UTC","TLE_LINE1":"1 48331U 21036BH  22122.85795732 -.00001032  00000-0 -50441-4 0  9992","OBJECT_NAME":"STARLINK-2514","CLASSIFICATION_TYPE":"U","BSTAR":"-0.00005044100000","MEAN_MOTION_DDOT":"0.0000000000000","OBJECT_ID":"2021-036BH","ECCENTRICITY":"0.00014210","ARG_OF_PERICENTER":"61.0833","FILE":"3426306","MEAN_MOTION_DOT":"-0.00001032","SITE":"AFETR","INCLINATION":"53.0545","DECAY_DATE":null,"REV_AT_EPOCH":"5599","ELEMENT_SET_NO":"999","MEAN_MOTION":"15.06383121","RA_OF_ASC_NODE":"297.1409","RCS_SIZE":"LARGE","OBJECT_TYPE":"PAYLOAD","NORAD_CAT_ID":"48331","MEAN_ANOMALY":"299.0299","LAUNCH_DATE":"2021-04-29","MEAN_ELEMENT_THEORY":"SGP4","EPHEMERIS_TYPE":"0","EPOCH":"2022-05-02T20:35:27.512448","PERIOD":"95.593","GP_ID":"202555631","TLE_LINE2":"2 48331  53.0545 297.1409 0001421  61.0833 299.0299 15.06383121 55992","SEMIMAJOR_AXIS":"6925.400","APOAPSIS":"548.249"},{"FILE":"3426306","ARG_OF_PERICENTER":"61.8922","MEAN_MOTION_DDOT":"0.0000000000000","ECCENTRICITY":"0.00017400","OBJECT_ID":"2021-036BJ","CLASSIFICATION_TYPE":"U","BSTAR":"0.00013570000000","TIME_SYSTEM":"UTC","TLE_LINE1":"1 48332U 21036BJ  22122.85700065  .00001740  00000-0  13570-3 0  9993","OBJECT_NAME":"STARLINK-2511","PERIAPSIS":"546.014","COUNTRY_CODE":"US","CENTER_NAME":"EARTH","REF_FRAME":"TEME","APOAPSIS":"548.424","PERIOD":"95.592","TLE_LINE2":"2 48332  53.0542 297.1325 0001740  61.8922 298.2242 15.06398181 55999","GP_ID":"202555881","SEMIMAJOR_AXIS":"6925.354","MEAN_ELEMENT_THEORY":"SGP4","EPOCH":"2022-05-02T20:34:04.856160","EPHEMERIS_TYPE":"0","MEAN_ANOMALY":"298.2242","LAUNCH_DATE":"2021-04-29","RCS_SIZE":"LARGE","OBJECT_TYPE":"PAYLOAD","NORAD_CAT_ID":"48332","RA_OF_ASC_NODE":"297.1325","SITE":"AFETR","MEAN_MOTION_DOT":"0.00001740","DECAY_DATE":null,"REV_AT_EPOCH":"5599","INCLINATION":"53.0542","ELEMENT_SET_NO":"999","MEAN_MOTION":"15.06398181"},{"MEAN_ELEMENT_THEORY":"SGP4","EPHEMERIS_TYPE":"0","EPOCH":"2022-05-02T18:49:17.893632","MEAN_ANOMALY":"293.6960","LAUNCH_DATE":"2021-04-29","APOAPSIS":"548.359","PERIOD":"95.593","GP_ID":"202556131","TLE_LINE2":"2 48333  53.0547 297.4538 0001575  66.4194 293.6960 15.06382211 55984","SEMIMAJOR_AXIS":"6925.403","MEAN_MOTION_DOT":"-0.00001023","SITE":"AFETR","REV_AT_EPOCH":"5598","DECAY_DATE":null,"INCLINATION":"53.0547","ELEMENT_SET_NO":"999","MEAN_MOTION":"15.06382211","RCS_SIZE":"LARGE","NORAD_CAT_ID":"48333","OBJECT_TYPE":"PAYLOAD","RA_OF_ASC_NODE":"297.4538","MEAN_MOTION_DDOT":"0.0000000000000","OBJECT_ID":"2021-036BK","ECCENTRICITY":"0.00015750","CLASSIFICATION_TYPE":"U","BSTAR":"-0.00004978500000","FILE":"3426306","ARG_OF_PERICENTER":"66.4194","PERIAPSIS":"546.177","REF_FRAME":"TEME","COUNTRY_CODE":"US","CENTER_NAME":"EARTH","TLE_LINE1":"1 48333U 21036BK  22122.78423488 -.00001023  00000-0 -49785-4 0  9991","TIME_SYSTEM":"UTC","OBJECT_NAME":"STARLINK-2518"},{"TLE_LINE2":"2 48334  53.0547 297.1751 0001404  60.5865 299.5264 15.06382037 55999","SEMIMAJOR_AXIS":"6925.404","GP_ID":"202556377","PERIOD":"95.593","APOAPSIS":"548.241","LAUNCH_DATE":"2021-04-29","MEAN_ANOMALY":"299.5264","EPHEMERIS_TYPE":"0","EPOCH":"2022-05-02T20:19:32.077920","MEAN_ELEMENT_THEORY":"SGP4","RA_OF_ASC_NODE":"297.1751","NORAD_CAT_ID":"48334","OBJECT_TYPE":"PAYLOAD","RCS_SIZE":"LARGE","DECAY_DATE":null,"INCLINATION":"53.0547","REV_AT_EPOCH":"5599","ELEMENT_SET_NO":"999","MEAN_MOTION":"15.06382037","MEAN_MOTION_DOT":"-0.00000982","SITE":"AFETR","ARG_OF_PERICENTER":"60.5865","FILE":"3426306","BSTAR":"-0.00004705400000","CLASSIFICATION_TYPE":"U","OBJECT_ID":"2021-036BL","ECCENTRICITY":"0.00014040","MEAN_MOTION_DDOT":"0.0000000000000","OBJECT_NAME":"STARLINK-2470","TIME_SYSTEM":"UTC","TLE_LINE1":"1 48334U 21036BL  22122.84689905 -.00000982  00000-0 -47054-4 0  9997","CENTER_NAME":"EARTH","COUNTRY_CODE":"US","REF_FRAME":"TEME","PERIAPSIS":"546.296"},{"COUNTRY_CODE":"US","REF_FRAME":"TEME","CENTER_NAME":"EARTH","PERIAPSIS":"546.305","OBJECT_NAME":"STARLINK-2441","TLE_LINE1":"1 48335U 21036BM  22122.84321049  .00000844  00000-0  75587-4 0  9997","TIME_SYSTEM":"UTC","BSTAR":"0.00007558700000","CLASSIFICATION_TYPE":"U","ECCENTRICITY":"0.00013820","OBJECT_ID":"2021-036BM","MEAN_MOTION_DDOT":"0.0000000000000","ARG_OF_PERICENTER":"78.4698","FILE":"3426175","DECAY_DATE":null,"REV_AT_EPOCH":"5658","ELEMENT_SET_NO":"999","INCLINATION":"53.0559","MEAN_MOTION":"15.06384177","MEAN_MOTION_DOT":"0.00000844","SITE":"AFETR","RA_OF_ASC_NODE":"297.2093","OBJECT_TYPE":"PAYLOAD","NORAD_CAT_ID":"48335","RCS_SIZE":"LARGE","LAUNCH_DATE":"2021-04-29","MEAN_ANOMALY":"281.6446","EPHEMERIS_TYPE":"0","EPOCH":"2022-05-02T20:14:13.386336","MEAN_ELEMENT_THEORY":"SGP4","TLE_LINE2":"2 48335  53.0559 297.2093 0001382  78.4698 281.6446 15.06384177 56587","SEMIMAJOR_AXIS":"6925.397","GP_ID":"202532820","PERIOD":"95.593","APOAPSIS":"548.219"}];
